OBJECT_NAME,OBJECT_ID,EPOCH,MEAN_MOTION,ECCENTRICITY,INCLINATION,RA_OF_ASC_NODE,ARG_OF_PERICENTER,MEAN_ANOMALY,EPHEMERIS_TYPE,CLASSIFICATION_TYPE,NORAD_CAT_ID,ELEMENT_SET_NO,REV_AT_EPOCH,BSTAR,MEAN_MOTION_DOT,MEAN_MOTION_DDOT
HAWK-5A,2022-057AB,2026-06-13T22:44:35.713248,15.51287534,.00057799,97.6592,323.5865,88.6497,271.5416,0,U,52757,999,22584,.33376028E-3,.19506E-3,0
HAWK-6B,2023-011A,2026-06-13T23:16:33.648096,15.22907751,.00029262,40.4994,10.8375,341.5085,18.5617,0,U,55324,999,18735,.23250396E-3,.5376E-4,0
HAWK-6C,2023-011C,2026-06-13T20:06:44.071776,15.22903526,.00036004,40.4992,8.4442,329.4805,30.5794,0,U,55326,999,18734,.19404628E-3,.4453E-4,0
HAWK-6A,2023-011D,2026-06-13T20:06:48.861792,15.22903337,.00034048,40.4994,10.0690,328.2172,31.8431,0,U,55327,999,18734,.21673741E-3,.4997E-4,0
HAWK-7A,2023-054P,2026-06-14T05:27:53.336160,15.27333300,.00045116,97.2708,52.6404,63.7650,296.4053,0,U,56191,999,17657,.21931128E-3,.58E-4,0
HAWK-7B,2023-054R,2026-06-13T23:10:23.373984,15.27324837,.0003779,97.2742,50.6486,78.3906,281.7758,0,U,56193,999,17653,.12729E-3,.3335E-4,0
HAWK-7C,2023-054Y,2026-06-14T05:27:36.416448,15.27333074,.00038709,97.2712,51.6731,66.2363,293.9282,0,U,56200,999,17657,.21745718E-3,.575E-4,0
